{"epoch":1784799577,"count":18318,"objects":[{"id":"26900","name":"INTELSAT 902","type":"PAYLOAD","l1":"1 26900U 01039A   26203.46179413 -.00000285  00000-0  00000-0 0  9994","l2":"2 26900   6.2026  71.3465 0004275  50.1458 294.8685  1.00272438 91045"},{"id":"27380","name":"INTELSAT 904","type":"PAYLOAD","l1":"1 27380U 02007A   26203.89322759 -.00000227  00000-0  00000-0 0  9999","l2":"2 27380   7.0064  68.7515 0005244  29.6134 132.3600  1.00273594 52127"},{"id":"27426","name":"DIRECTV 5 (TEMPO 1)","type":"PAYLOAD","l1":"1 27426U 02023A   26203.59256368 -.00000058  00000-0  00000-0 0  9999","l2":"2 27426   4.9656  74.8658 0003207  44.0068 284.6749  1.00272149 88478"},{"id":"27438","name":"INTELSAT 905","type":"PAYLOAD","l1":"1 27438U 02027A   26203.72968984  .00000092  00000-0  00000-0 0  9992","l2":"2 27438   6.8401  69.3667 0003592  51.1034 305.4821  1.00272761 51718"},{"id":"27445","name":"GALAXY 3C","type":"PAYLOAD","l1":"1 27445U 02030A   26203.80942543 -.00000152  00000-0  00000-0 0  9994","l2":"2 27445   3.8238  77.5183 0001868  28.9635  30.6146  1.00271465 46854"},{"id":"27513","name":"INTELSAT 906","type":"PAYLOAD","l1":"1 27513U 02041A   26203.76955858  .00000012  00000-0  00000-0 0  9994","l2":"2 27513   5.8892  72.4771 0003424  32.0287 177.1984  1.00271441 87388"},{"id":"27954","name":"HORIZONS 1 (GALAXY 13)","type":"PAYLOAD","l1":"1 27954U 03044A   26203.72717649  .00000135  00000-0  00000-0 0  9993","l2":"2 27954   1.5078  83.3980 0002075  44.1505 284.7210  1.00274659 46923"},{"id":"28358","name":"INTELSAT 1002","type":"PAYLOAD","l1":"1 28358U 04022A   26203.82800603 -.00000007  00000-0  00000-0 0  9992","l2":"2 28358   0.0590 255.7029 0000186 262.5018  79.4450  1.00272692 80917"},{"id":"28659","name":"DIRECTV 8","type":"PAYLOAD","l1":"1 28659U 05019A   26203.73332986  .00000005  00000-0  00000-0 0  9994","l2":"2 28659   0.0140  77.4981 0003237  49.2249 318.7033  1.00273389 77426"},{"id":"28702","name":"GALAXY 28 (IA 8)","type":"PAYLOAD","l1":"1 28702U 05022A   26203.89409426 -.00000199  00000-0  00000-0 0  9993","l2":"2 28702   3.3872  78.4884 0002312  41.8532 115.0687  1.00271717 52331"},{"id":"29236","name":"GALAXY 16","type":"PAYLOAD","l1":"1 29236U 06023A   26203.66603770 -.00000123  00000-0  00000-0 0  9998","l2":"2 29236   0.0263 129.7111 0002819 352.0085 319.4532  1.00272771 73329"},{"id":"29494","name":"DIRECTV 9S","type":"PAYLOAD","l1":"1 29494U 06043A   26203.66551769 -.00000112  00000-0  00000-0 0  9994","l2":"2 29494   2.5098  80.4751 0005209  34.8621 323.4523  1.00271911 51739"},{"id":"31307","name":"GALAXY 17","type":"PAYLOAD","l1":"1 31307U 07016B   26203.81133211 -.00000205  00000-0  00000-0 0  9999","l2":"2 31307   3.0589  79.4525 0003553  34.5017  33.6591  1.00272317 70163"},{"id":"32253","name":"INTELSAT 11 (PAS 11)","type":"PAYLOAD","l1":"1 32253U 07044B   26203.89331426 -.00000239  00000-0  00000-0 0  9994","l2":"2 32253   3.6557  78.2320 0004691  98.9158  53.8888  0.99051989 68807"},{"id":"32388","name":"HORIZONS 2","type":"PAYLOAD","l1":"1 32388U 07063B   26203.90079216 -.00000252  00000-0  00000-0 0  9997","l2":"2 32388   2.6915  80.1888 0003703  21.4407  89.4975  1.00272034 68176"},{"id":"32729","name":"DIRECTV 11","type":"PAYLOAD","l1":"1 32729U 08013A   26203.59464369 -.00000122  00000-0  00000-0 0  9990","l2":"2 32729   0.0100 272.6171 0000272 174.3666 328.2321  1.00272989 45947"},{"id":"32951","name":"GALAXY 18","type":"PAYLOAD","l1":"1 32951U 08024A   26203.79488922  .00000000  00000-0  00000-0 0  9996","l2":"2 32951   0.0189  52.6571 0003153  74.3921 336.6648  1.00273574 46212"},{"id":"33376","name":"GALAXY 19","type":"PAYLOAD","l1":"1 33376U 08045A   26203.59507703 -.00000135  00000-0  00000-0 0  9998","l2":"2 33376   0.0616 252.1327 0002705 241.1088 284.3159  1.00271572 65252"},{"id":"35493","name":"SIRIUS FM-5","type":"PAYLOAD","l1":"1 35493U 09034A   26203.81098544 -.00000196  00000-0  00000-0 0  9999","l2":"2 35493   0.0407 259.3821 0000842 129.7730 117.1659  1.00269867 47000"},{"id":"36097","name":"INTELSAT 14","type":"PAYLOAD","l1":"1 36097U 09064A   26203.89054091 -.00000269  00000-0  00000-0 0  9991","l2":"2 36097   0.0169  54.3482 0002574  69.5761  92.2927  1.00271234 60963"},{"id":"36106","name":"INTELSAT 15","type":"PAYLOAD","l1":"1 36106U 09067A   26203.91635029 -.00000181  00000-0  00000-0 0  9997","l2":"2 36106   0.0150  56.6682 0002383  63.7709 235.2527  1.00272191 41582"},{"id":"36131","name":"DIRECTV 12","type":"PAYLOAD","l1":"1 36131U 09075A   26203.66525769 -.00000100  00000-0  00000-0 0  9996","l2":"2 36131   0.0077 213.0864 0000220 346.3224 237.7680  1.00271974 46905"},{"id":"36397","name":"INTELSAT 16","type":"PAYLOAD","l1":"1 36397U 10006A   26203.88436407 -.00000240  00000-0  00000-0 0  9995","l2":"2 36397   0.0096 351.6480 0002148 126.4672  64.6787  1.00272186 60017"},{"id":"37185","name":"XM-5","type":"PAYLOAD","l1":"1 37185U 10053A   26203.73376319 -.00000019  00000-0  00000-0 0  9996","l2":"2 37185   0.0624 264.2555 0001288 308.8791 236.2900  1.00270843 57843"},{"id":"37238","name":"INTELSAT 17","type":"PAYLOAD","l1":"1 37238U 10065B   26203.96024088  .00000002  00000-0  00000-0 0  9997","l2":"2 37238   0.0169 101.0368 0002435  18.8230 232.5268  1.00273309 53603"},{"id":"37392","name":"INTELSAT NEW DAWN","type":"PAYLOAD","l1":"1 37392U 11016A   26203.89322759 -.00000223  00000-0  00000-0 0  9999","l2":"2 37392   1.8959  82.1893 0004023  43.6930 104.5987  1.00271185 53640"},{"id":"37834","name":"INTELSAT 18","type":"PAYLOAD","l1":"1 37834U 11056A   26203.86382398  .00000057  00000-0  00000-0 0  9990","l2":"2 37834   0.0306 264.0516 0002000 225.2474 302.2680  1.00272080 54165"},{"id":"38098","name":"INTELSAT 22","type":"PAYLOAD","l1":"1 38098U 12011A   26203.88656171 -.00000054  00000-0  00000-0 0  9998","l2":"2 38098   0.0089  23.4889 0002036 122.1232 186.2716  1.00271579  7544"},{"id":"38356","name":"INTELSAT 19","type":"PAYLOAD","l1":"1 38356U 12030A   26203.86105064 -.00000052  00000-0  00000-0 0  9992","l2":"2 38356   0.0045  84.9870 0003095  34.8820 296.7064  1.00273049 50807"},{"id":"38740","name":"INTELSAT 20","type":"PAYLOAD","l1":"1 38740U 12043A   26203.91305693 -.00000020  00000-0  00000-0 0  9994","l2":"2 38740   0.0144  79.4088 0001345 104.9664 153.4787  1.00271968 51108"},{"id":"38749","name":"INTELSAT 21","type":"PAYLOAD","l1":"1 38749U 12045A   26203.81670546 -.00000281  00000-0  00000-0 0  9995","l2":"2 38749   0.0355 258.5837 0001912 232.8314  45.1548  1.00270893 50888"}]}